STARLINK-31244          
1 58856U 24019D   26068.56188810 -.00002174  00000+0 -69451-4 0  9991
2 58856  43.0044 249.5832 0002101 278.4832  81.5781 15.27599347119069
BANDWAGON-4 OBJECT N    
1 66305U 25248N   26068.03100984  .00024115  00000+0  97341-3 0  9997
2 66305  45.4084 294.9612 0013521 206.7837 153.2354 15.24369076 17177
